DMSP 5D-3 F16 (USA 172) 
1 28054U 03048A   26175.29906154 -.00000021  00000+0  12537-4 0  9996
2 28054  98.9888 199.1745 0008021 122.3601 248.2272 14.14483411170492
METEOSAT-9 (MSG-2)      
1 28912U 05049B   26174.98123363  .00000123  00000+0  00000+0 0  9999
2 28912   9.3770  54.1031 0001969 353.1207 263.8503  1.00276111  7069
DMSP 5D-3 F17 (USA 191) 
1 29522U 06050A   26175.24082442  .00000000  00000+0  22160-4 0  9992
2 29522  98.7378 181.6666 0010911  40.9984 319.2008 14.14993619 13424
FENGYUN 3A              
1 32958U 08026A   26175.09568399  .00000041  00000+0  39856-4 0  9992
2 32958  98.6884 115.7997 0009804 105.7515 254.4743 14.19572310936387
GOES 14                 
1 35491U 09033A   26175.17475344 -.00000309  00000+0  00000+0 0  9994
2 35491   1.7086  82.9684 0002151  15.8840  14.1532  1.00109179  6660
DMSP 5D-3 F18 (USA 210) 
1 35951U 09057A   26175.21266581  .00000235  00000+0  14462-3 0  9995
2 35951  98.9040 155.9666 0010087 227.4595 132.5727 14.14900436860589
EWS-G2 (GOES 15)        
1 36411U 10008A   26175.11172619  .00000027  00000+0  00000+0 0  9990
2 36411   1.2971  82.7580 0005175  42.3240 251.0022  1.00267670 59702
COMS 1                  
1 36744U 10032A   26174.95395442  .00000083  00000+0  00000+0 0  9990
2 36744   4.8229  75.2796 0011845  12.3938 214.3110  0.99165102 51159
FENGYUN 3B              
1 37214U 10059A   26175.31105407 -.00000376  00000+0 -17119-3 0  9993
2 37214  98.9619 221.3560 0022322 163.7705 288.5796 14.14841469808430
SUOMI NPP               
1 37849U 11061A   26175.24817469  .00000044  00000+0  41922-4 0  9991
2 37849  98.7954 116.0760 0001137 347.2181  12.8966 14.19518714759446
METEOSAT-10 (MSG-3)     
1 38552U 12035B   26175.02787910 -.00000003  00000+0  00000+0 0  9991
2 38552   4.6882  60.9938 0001681   5.7005 215.7464  1.00267892 50921
METOP-B                 
1 38771U 12049A   26175.29912216  .00000071  00000+0  52263-4 0  9994
2 38771  98.6501 226.6564 0001783 359.1090   1.0084 14.21441005714270
INSAT-3D                
1 39216U 13038B   26175.03308476 -.00000333  00000+0  00000+0 0  9996
2 39216   1.9444  82.4640 0001058 357.3034 333.8484  1.00272993 47140
FENGYUN 3C              
1 39260U 13052A   26175.25250667  .00000065  00000+0  54028-4 0  9998
2 39260  98.4982 148.8030 0014858   7.9080 352.2326 14.15756362659560
METEOR-M 2              
1 40069U 14037A   26175.25499128  .00000430  00000+0  21600-3 0  9993
2 40069  98.5117 150.7431 0006441  26.7181 333.4328 14.21464504620323
HIMAWARI-8              
1 40267U 14060A   26175.16919581 -.00000268  00000+0  00000+0 0  9996
2 40267   0.0215 297.2405 0001468 157.7200  18.9276  1.00271272 42831
FENGYUN 2G              
1 40367U 14090A   26174.90415929 -.00000299  00000+0  00000+0 0  9992
2 40367   5.6568  72.7393 0003593 152.9330 111.5572  1.00269968 42061
METEOSAT-11 (MSG-4)     
1 40732U 15034A   26175.17234663  .00000067  00000+0  00000+0 0  9993
2 40732   3.2181  71.0648 0002293 347.1800 285.6154  1.00265250  7287
ELEKTRO-L 2             
1 41105U 15074A   26174.95372752 -.00000116  00000+0  00000+0 0  9995
2 41105   6.7110  70.4435 0000765 277.7123 252.7626  1.00271133 38579
SENTINEL-3A             
1 41335U 16011A   26175.29968180  .00000071  00000+0  47395-4 0  9998
2 41335  98.6246 242.5812 0001424  98.0107 262.1235 14.26734381539077
INSAT-3DR               
1 41752U 16054A   26175.11380620 -.00000070  00000+0  00000+0 0  9993
2 41752   0.1238  86.2862 0010171 187.3214 113.5999  1.00272215 35884
HIMAWARI-9              
1 41836U 16064A   26174.91317169  .00000000  00000+0  00000+0 0  9994
2 41836   0.0192  19.9692 0001162  91.1134 270.5003  1.00269596 35273
GOES 16                 
1 41866U 16071A   26175.19682215 -.00000084  00000+0  00000+0 0  9996
2 41866   0.3596  85.5430 0000482 358.6578 154.3108  1.00271929 35170
FENGYUN 4A              
1 41882U 16077A   26174.71183522 -.00000352  00000+0  00000+0 0  9992
2 41882   2.3403  80.2217 0008368 152.9998  58.5685  1.00265670 34994
CYGFM05                 
1 41884U 16078A   26174.46375310  .00017439  00000+0  23445-3 0  9990
2 41884  34.9559 219.0187 0007806 210.3577 149.6696 15.56903024529738
CYGFM04                 
1 41885U 16078B   26175.30959322  .00024447  00000+0  27165-3 0  9996
2 41885  34.9309 180.7447 0007308 255.3252 104.6663 15.61852901530113
CYGFM02                 
1 41886U 16078C   26175.29651564  .00030186  00000+0  29696-3 0  9990
2 41886  34.9389 175.1586 0008285 257.1230 102.8571 15.64902406530280
CYGFM01                 
1 41887U 16078D   26174.51380505  .00018414  00000+0  24119-3 0  9994
2 41887  34.9389 219.6930 0007547 205.2094 154.8263 15.57590328529696
CYGFM08                 
1 41888U 16078E   26174.46238074  .00020586  00000+0  24304-3 0  9991
2 41888  34.9419 199.4467 0009047 233.8204 126.1684 15.60291307529955
CYGFM07                 
1 41890U 16078G   26175.31681062  .00023368  00000+0  27437-3 0  9999
2 41890  34.9431 182.0924 0007675 255.1399 104.8477 15.60432522530114
CYGFM03                 
1 41891U 16078H   26175.22387308  .00022909  00000+0  26918-3 0  9999
2 41891  34.9385 184.6465 0007284 243.0211 116.9770 15.60419928530076
