OBJECT_NAME,OBJECT_ID,EPOCH,MEAN_MOTION,ECCENTRICITY,INCLINATION,RA_OF_ASC_NODE,ARG_OF_PERICENTER,MEAN_ANOMALY,EPHEMERIS_TYPE,CLASSIFICATION_TYPE,NORAD_CAT_ID,ELEMENT_SET_NO,REV_AT_EPOCH,BSTAR,MEAN_MOTION_DOT,MEAN_MOTION_DDOT
DMSP 5D-3 F16 (USA 172),2003-048A,2026-06-24T07:10:38.917056,14.14483411,.00080216,98.9888,199.1745,122.3601,248.2272,0,U,28054,999,17049,.12536707E-4,-.21E-6,0
METEOSAT-9 (MSG-2),2005-049B,2026-06-23T23:32:58.585632,1.00276111,.00019691,9.3770,54.1031,353.1207,263.8503,0,U,28912,999,706,0,.123E-5,0
DMSP 5D-3 F17 (USA 191),2006-050A,2026-06-24T05:46:47.229888,14.14993619,.00109119,98.7378,181.6666,40.9984,319.2008,0,U,29522,999,1342,.22159858E-4,0,0
FENGYUN 3A,2008-026A,2026-06-24T02:17:47.096736,14.19572310,.00098048,98.6884,115.7997,105.7515,254.4743,0,U,32958,999,93638,.39856081E-4,.41E-6,0
GOES 14,2009-033A,2026-06-24T04:11:38.697216,1.00109179,.00021517,1.7086,82.9684,15.8840,14.1532,0,U,35491,999,666,0,-.309E-5,0
DMSP 5D-3 F18 (USA 210),2009-057A,2026-06-24T05:06:14.325984,14.14900436,.00100877,98.9040,155.9666,227.4595,132.5727,0,U,35951,999,86058,.14461939E-3,.235E-5,0
EWS-G2 (GOES 15),2010-008A,2026-06-24T02:40:53.142816,1.00267670,.0005175,1.2971,82.7580,42.3240,251.0022,0,U,36411,999,5970,0,.27E-6,0
COMS 1,2010-032A,2026-06-23T22:53:41.661888,0.99165102,.00118457,4.8229,75.2796,12.3938,214.3110,0,U,36744,999,5115,0,.83E-6,0
FENGYUN 3B,2010-059A,2026-06-24T07:27:55.071648,14.14841469,.00223222,98.9619,221.3560,163.7705,288.5796,0,U,37214,999,80843,-.17118991E-3,-.376E-5,0
SUOMI NPP,2011-061A,2026-06-24T05:57:22.293216,14.19518714,.00011371,98.7954,116.0760,347.2181,12.8966,0,U,37849,999,75944,.41921842E-4,.44E-6,0
METEOSAT-10 (MSG-3),2012-035B,2026-06-24T00:40:08.754240,1.00267892,.00016811,4.6882,60.9938,5.7005,215.7464,0,U,38552,999,5092,0,-.3E-7,0
METOP-B,2012-049A,2026-06-24T07:10:44.154624,14.21441005,.00017838,98.6501,226.6564,359.1090,1.0084,0,U,38771,999,71427,.52262534E-4,.71E-6,0
INSAT-3D,2013-038B,2026-06-24T00:47:38.523264,1.00272993,.00010584,1.9444,82.4640,357.3034,333.8484,0,U,39216,999,4714,0,-.333E-5,0
FENGYUN 3C,2013-052A,2026-06-24T06:03:36.576288,14.15756362,.00148582,98.4982,148.8030,7.9080,352.2326,0,U,39260,999,65956,.54028082E-4,.65E-6,0
METEOR-M 2,2014-037A,2026-06-24T06:07:11.246592,14.21464504,.00064411,98.5117,150.7431,26.7181,333.4328,0,U,40069,999,62032,.21600242E-3,.43E-5,0
HIMAWARI-8,2014-060A,2026-06-24T04:03:38.517984,1.00271272,.0001468,0.0215,297.2405,157.7200,18.9276,0,U,40267,999,4283,0,-.268E-5,0
FENGYUN 2G,2014-090A,2026-06-23T21:41:59.362656,1.00269968,.00035936,5.6568,72.7393,152.9330,111.5572,0,U,40367,999,4206,0,-.299E-5,0
METEOSAT-11 (MSG-4),2015-034A,2026-06-24T04:08:10.748832,1.00265250,.00022933,3.2181,71.0648,347.1800,285.6154,0,U,40732,999,728,0,.67E-6,0
ELEKTRO-L 2,2015-074A,2026-06-23T22:53:22.057728,1.00271133,.00007659,6.7110,70.4435,277.7123,252.7626,0,U,41105,999,3857,0,-.116E-5,0
SENTINEL-3A,2016-011A,2026-06-24T07:11:32.507520,14.26734381,.00014249,98.6246,242.5812,98.0107,262.1235,0,U,41335,999,53907,.47395482E-4,.71E-6,0
INSAT-3DR,2016-054A,2026-06-24T02:43:52.855680,1.00272215,.00101714,0.1238,86.2862,187.3214,113.5999,0,U,41752,999,3588,0,-.7E-6,0
HIMAWARI-9,2016-064A,2026-06-23T21:54:58.034016,1.00269596,.00011623,0.0192,19.9692,91.1134,270.5003,0,U,41836,999,3527,0,0,0
GOES 16,2016-071A,2026-06-24T04:43:25.433760,1.00271929,.00004829,0.3596,85.5430,358.6578,154.3108,0,U,41866,999,3517,0,-.84E-6,0
FENGYUN 4A,2016-077A,2026-06-23T17:05:02.563008,1.00265670,.00083687,2.3403,80.2217,152.9998,58.5685,0,U,41882,999,3499,0,-.352E-5,0
CYGFM05,2016-078A,2026-06-23T11:07:48.267840,15.56903024,.00078061,34.9559,219.0187,210.3577,149.6696,0,U,41884,999,52973,.2344543E-3,.17439E-3,0
CYGFM04,2016-078B,2026-06-24T07:25:48.854208,15.61852901,.00073085,34.9309,180.7447,255.3252,104.6663,0,U,41885,999,53011,.27164831E-3,.24447E-3,0
CYGFM02,2016-078C,2026-06-24T07:06:58.951296,15.64902406,.00082853,34.9389,175.1586,257.1230,102.8571,0,U,41886,999,53028,.29696244E-3,.30186E-3,0
CYGFM01,2016-078D,2026-06-23T12:19:52.756320,15.57590328,.00075473,34.9389,219.6930,205.2094,154.8263,0,U,41887,999,52969,.24119169E-3,.18414E-3,0
CYGFM08,2016-078E,2026-06-23T11:05:49.695936,15.60291307,.00090473,34.9419,199.4467,233.8204,126.1684,0,U,41888,999,52995,.24304127E-3,.20586E-3,0
CYGFM07,2016-078G,2026-06-24T07:36:12.437568,15.60432522,.00076755,34.9431,182.0924,255.1399,104.8477,0,U,41890,999,53011,.27436911E-3,.23368E-3,0
CYGFM03,2016-078H,2026-06-24T05:22:22.634112,15.60419928,.0007284,34.9385,184.6465,243.0211,116.9770,0,U,41891,999,53007,.2691785E-3,.22909E-3,0
